[
    {
        "Altitude(m)": 558585.9613616515,
        "Argument of Periapsis(deg)": 0.013245982221427002,
        "Eccentricity": 0.0,
        "Inclination(deg)": 53.0,
        "Latitude(deg)": -19.002385937833996,
        "Longitude(deg)": -146.62029611661904,
        "Mean Anomaly(deg)": 203.81958573515516,
        "RAAN(deg)": 119.98028673705602,
        "Satellite Name": "Starlink Shell 1 539",
        "Satellite Number": 539,
        "Semi-Major Axis(m)": 6931778.249405717,
        "Time(s)": 380
    },
    {
        "Altitude(m)": 558741.0032727197,
        "Argument of Periapsis(deg)": 0.013594560700938237,
        "Eccentricity": 0.0,
        "Inclination(deg)": 53.0,
        "Latitude(deg)": -19.487750387531268,
        "Longitude(deg)": -146.23977959306086,
        "Mean Anomaly(deg)": 204.4464169387119,
        "RAAN(deg)": 119.97976796697857,
        "Satellite Name": "Starlink Shell 1 539",
        "Satellite Number": 539,
        "Semi-Major Axis(m)": 6931778.249405717,
        "Time(s)": 390
    },
    {
        "Altitude(m)": 558897.5660751758,
        "Argument of Periapsis(deg)": 0.013943139180449475,
        "Eccentricity": 0.0,
        "Inclination(deg)": 53.0,
        "Latitude(deg)": -19.97208643489244,
        "Longitude(deg)": -145.85675939784875,
        "Mean Anomaly(deg)": 205.0732481422686,
        "RAAN(deg)": 119.97924919690107,
        "Satellite Name": "Starlink Shell 1 539",
        "Satellite Number": 539,
        "Semi-Major Axis(m)": 6931778.249405717,
        "Time(s)": 400
    },
    {
        "Altitude(m)": 559055.5957064184,
        "Argument of Periapsis(deg)": 0.014291717659960712,
        "Eccentricity": 0.0,
        "Inclination(deg)": 53.0,
        "Latitude(deg)": -20.45536099848982,
        "Longitude(deg)": -145.4711574520699,
        "Mean Anomaly(deg)": 205.70007934582534,
        "RAAN(deg)": 119.97873042682359,
        "Satellite Name": "Starlink Shell 1 539",
        "Satellite Number": 539,
        "Semi-Major Axis(m)": 6931778.249405717,
        "Time(s)": 410
    },
    {
        "Altitude(m)": 559215.0373004995,
        "Argument of Periapsis(deg)": 0.014640296139471948,
        "Eccentricity": 0.0,
        "Inclination(deg)": 53.0,
        "Latitude(deg)": -20.9375404088872,
        "Longitude(deg)": -145.08289514563904,
        "Mean Anomaly(deg)": 206.326910549382,
        "RAAN(deg)": 119.97821165674614,
        "Satellite Name": "Starlink Shell 1 539",
        "Satellite Number": 539,
        "Semi-Major Axis(m)": 6931778.249405717,
        "Time(s)": 420
    },
    {
        "Altitude(m)": 559375.8352125534,
        "Argument of Periapsis(deg)": 0.014988874618983185,
        "Eccentricity": 0.0,
        "Inclination(deg)": 53.0,
        "Latitude(deg)": -21.418590387410905,
        "Longitude(deg)": -144.69189280888673,
        "Mean Anomaly(deg)": 206.95374175293875,
        "RAAN(deg)": 119.97769288666865,
        "Satellite Name": "Starlink Shell 1 539",
        "Satellite Number": 539,
        "Semi-Major Axis(m)": 6931778.249405717,
        "Time(s)": 430
    },
    {
        "Altitude(m)": 559537.9330436005,
        "Argument of Periapsis(deg)": 0.015337453098494424,
        "Eccentricity": 0.0,
        "Inclination(deg)": 53.0,
        "Latitude(deg)": -21.898476024443696,
        "Longitude(deg)": -144.29806918469802,
        "Mean Anomaly(deg)": 207.5805729564955,
        "RAAN(deg)": 119.97717411659119,
        "Satellite Name": "Starlink Shell 1 539",
        "Satellite Number": 539,
        "Semi-Major Axis(m)": 6931778.249405717,
        "Time(s)": 440
    },
    {
        "Altitude(m)": 559701.2736657187,
        "Argument of Periapsis(deg)": 0.01568603157800566,
        "Eccentricity": 0.0,
        "Inclination(deg)": 53.0,
        "Latitude(deg)": -22.3771617572324,
        "Longitude(deg)": -143.90134241414856,
        "Mean Anomaly(deg)": 208.20740416005216,
        "RAAN(deg)": 119.97665534651371,
        "Satellite Name": "Starlink Shell 1 539",
        "Satellite Number": 539,
        "Semi-Major Axis(m)": 6931778.249405717,
        "Time(s)": 450
    },
    {
        "Altitude(m)": 559865.7992475674,
        "Argument of Periapsis(deg)": 0.0160346100575169,
        "Eccentricity": 0.0,
        "Inclination(deg)": 53.0,
        "Latitude(deg)": -22.854611347204994,
        "Longitude(deg)": -143.5016295099754,
        "Mean Anomaly(deg)": 208.83423536360894,
        "RAAN(deg)": 119.97613657643623,
        "Satellite Name": "Starlink Shell 1 539",
        "Satellite Number": 539,
        "Semi-Major Axis(m)": 6931778.249405717,
        "Time(s)": 460
    },
    {
        "Altitude(m)": 560031.4512802141,
        "Argument of Periapsis(deg)": 0.016383188537028134,
        "Eccentricity": 0.0,
        "Inclination(deg)": 53.0,
        "Latitude(deg)": -23.330787856787513,
        "Longitude(deg)": -143.0988458308459,
        "Mean Anomaly(deg)": 209.46106656716557,
        "RAAN(deg)": 119.97561780635876,
        "Satellite Name": "Starlink Shell 1 539",
        "Satellite Number": 539,
        "Semi-Major Axis(m)": 6931778.249405717,
        "Time(s)": 470
    },
    {
        "Altitude(m)": 560198.1706033238,
        "Argument of Periapsis(deg)": 0.01673176701653937,
        "Eccentricity": 0.0,
        "Inclination(deg)": 53.0,
        "Latitude(deg)": -23.805653625713298,
        "Longitude(deg)": -142.69290606939472,
        "Mean Anomaly(deg)": 210.08789777072235,
        "RAAN(deg)": 119.9750990362813,
        "Satellite Name": "Starlink Shell 1 539",
        "Satellite Number": 539,
        "Semi-Major Axis(m)": 6931778.249405717,
        "Time(s)": 480
    },
    {
        "Altitude(m)": 560365.8974316235,
        "Argument of Periapsis(deg)": 0.017080345496050607,
        "Eccentricity": 0.0,
        "Inclination(deg)": 53.0,
        "Latitude(deg)": -24.27917024682275,
        "Longitude(deg)": -142.2837237283879,
        "Mean Anomaly(deg)": 210.71472897427907,
        "RAAN(deg)": 119.97458026620382,
        "Satellite Name": "Starlink Shell 1 539",
        "Satellite Number": 539,
        "Semi-Major Axis(m)": 6931778.249405717,
        "Time(s)": 490
    },
    {
        "Altitude(m)": 560534.5713816689,
        "Argument of Periapsis(deg)": 0.017428923975561842,
        "Eccentricity": 0.0,
        "Inclination(deg)": 53.0,
        "Latitude(deg)": -24.751298541348493,
        "Longitude(deg)": -141.871210598002,
        "Mean Anomaly(deg)": 211.34156017783576,
        "RAAN(deg)": 119.97406149612635,
        "Satellite Name": "Starlink Shell 1 539",
        "Satellite Number": 539,
        "Semi-Major Axis(m)": 6931778.249405717,
        "Time(s)": 500
    },
    {
        "Altitude(m)": 560704.1314989048,
        "Argument of Periapsis(deg)": 0.01777750245507308,
        "Eccentricity": 0.0,
        "Inclination(deg)": 53.0,
        "Latitude(deg)": -25.221998533680242,
        "Longitude(deg)": -141.45527774721336,
        "Mean Anomaly(deg)": 211.96839138139254,
        "RAAN(deg)": 119.97354272604888,
        "Satellite Name": "Starlink Shell 1 539",
        "Satellite Number": 539,
        "Semi-Major Axis(m)": 6931778.249405717,
        "Time(s)": 510
    },
    {
        "Altitude(m)": 560874.516284973,
        "Argument of Periapsis(deg)": 0.018126080934584315,
        "Eccentricity": 0.0,
        "Inclination(deg)": 53.0,
        "Latitude(deg)": -25.691229425612395,
        "Longitude(deg)": -141.03583500368572,
        "Mean Anomaly(deg)": 212.59522258494917,
        "RAAN(deg)": 119.9730239559714,
        "Satellite Name": "Starlink Shell 1 539",
        "Satellite Number": 539,
        "Semi-Major Axis(m)": 6931778.249405717,
        "Time(s)": 520
    },
    {
        "Altitude(m)": 561045.6637252868,
        "Argument of Periapsis(deg)": 0.018474659414095554,
        "Eccentricity": 0.0,
        "Inclination(deg)": 53.0,
        "Latitude(deg)": -26.158949570073403,
        "Longitude(deg)": -140.6127904351691,
        "Mean Anomaly(deg)": 213.22205378850595,
        "RAAN(deg)": 119.97250518589392,
        "Satellite Name": "Starlink Shell 1 539",
        "Satellite Number": 539,
        "Semi-Major Axis(m)": 6931778.249405717,
        "Time(s)": 530
    },
    {
        "Altitude(m)": 561217.5113168196,
        "Argument of Periapsis(deg)": 0.018823237893606792,
        "Eccentricity": 0.0,
        "Inclination(deg)": 53.0,
        "Latitude(deg)": -26.625116444335386,
        "Longitude(deg)": -140.18605134544137,
        "Mean Anomaly(deg)": 213.8488849920626,
        "RAAN(deg)": 119.97198641581647,
        "Satellite Name": "Starlink Shell 1 539",
        "Satellite Number": 539,
        "Semi-Major Axis(m)": 6931778.249405717,
        "Time(s)": 540
    },
    {
        "Altitude(m)": 561389.9960961674,
        "Argument of Periapsis(deg)": 0.019171816373118027,
        "Eccentricity": 0.0,
        "Inclination(deg)": 53.0,
        "Latitude(deg)": -27.0896866227138,
        "Longitude(deg)": -139.7555237592062,
        "Mean Anomaly(deg)": 214.47571619561936,
        "RAAN(deg)": 119.97146764573898,
        "Satellite Name": "Starlink Shell 1 539",
        "Satellite Number": 539,
        "Semi-Major Axis(m)": 6931778.249405717,
        "Time(s)": 550
    },
    {
        "Altitude(m)": 561563.0546677682,
        "Argument of Periapsis(deg)": 0.019520394852629266,
        "Eccentricity": 0.0,
        "Inclination(deg)": 53.0,
        "Latitude(deg)": -27.55261574876001,
        "Longitude(deg)": -139.32111190900133,
        "Mean Anomaly(deg)": 215.1025473991761,
        "RAAN(deg)": 119.97094887566152,
        "Satellite Name": "Starlink Shell 1 539",
        "Satellite Number": 539,
        "Semi-Major Axis(m)": 6931778.249405717,
        "Time(s)": 560
    }
]